{"type": "FeatureCollection", "features": [ {"type": "Feature", "properties": {"norad_id": 29769, "name": "FENGYUN 1C DEB", "group": "fengyun-1c-debris", "lat": 35.158039810729136, "lon": -133.93567231704512, "alt_km": 777.066990340857, "timestamp": "2025-12-08T08:59:01.036820+00:00", "meta": {"OBJECT_NAME": "FENGYUN 1C DEB", "OBJECT_ID": "1999-025BK", "EPOCH": "2025-12-02T16:23:36.839328", "MEAN_MOTION": 14.1344001, "ECCENTRICITY": 0.00941574, "INCLINATION": 99.1074, "RA_OF_ASC_NODE": 33.7848, "ARG_OF_PERICENTER": 158.4055, "MEAN_ANOMALY": 202.1129, "EPHEMERIS_TYPE": 0, "CLASSIFICATION_TYPE": "U", "NORAD_CAT_ID": 29769, "ELEMENT_SET_NO": 999, "REV_AT_EPOCH": 96539, "BSTAR": 0.0018821587, "MEAN_MOTION_DOT": 3.647e-05, "MEAN_MOTION_DDOT": 0}, "tle": {"line1": "1 29769U 99025BK  25336.68306527  .00003647  00000+0  18822-2 0  9996", "line2": "2 29769  99.1074  33.7848 0094157 158.4055 202.1129 14.13440010965399"}}, "geometry": {"type": "Point", "coordinates": [-133.93567231704512, 35.158039810729136]}}, {"type": "Feature", "properties": {"norad_id": 29770, "name": "FENGYUN 1C DEB", "group": "fengyun-1c-debris", "lat": -7.002045720228092, "lon": -123.15041334807344, "alt_km": 834.0109054256891, "timestamp": "2025-12-08T08:59:01.036831+00:00", "meta": {"OBJECT_NAME": "FENGYUN 1C DEB", "OBJECT_ID": "1999-025BL", "EPOCH": "2025-12-07T11:52:42.511008", "MEAN_MOTION": 14.20067644, "ECCENTRICITY": 0.00623463, "INCLINATION": 98.8464, "RA_OF_ASC_NODE": 57.0666, "ARG_OF_PERICENTER": 286.4192, "MEAN_ANOMALY": 88.1571, "EPHEMERIS_TYPE": 0, "CLASSIFICATION_TYPE": "U", "NORAD_CAT_ID": 29770, "ELEMENT_SET_NO": 999, "REV_AT_EPOCH": 97012, "BSTAR": 0.0024824228, "MEAN_MOTION_DOT": 5.349e-05, "MEAN_MOTION_DDOT": 0}, "tle": {"line1": "1 29770U 99025BL  25341.49493647  .00005349  00000+0  24824-2 0  9993", "line2": "2 29770  98.8464  57.0666 0062346 286.4192  88.1571 14.20067644970122"}}, "geometry": {"type": "Point", "coordinates": [-123.15041334807344, -7.002045720228092]}}, {"type": "Feature", "properties": {"norad_id": 29772, "name": "FENGYUN 1C DEB", "group": "fengyun-1c-debris", "lat": 13.694084685434973, "lon": -170.15204531783124, "alt_km": 850.4050986597404, "timestamp": "2025-12-08T08:59:01.036842+00:00", "meta": {"OBJECT_NAME": "FENGYUN 1C DEB", "OBJECT_ID": "1999-025BN", "EPOCH": "2025-12-02T01:20:42.454752", "MEAN_MOTION": 14.03146146, "ECCENTRICITY": 0.01386122, "INCLINATION": 98.3877, "RA_OF_ASC_NODE": 186.0811, "ARG_OF_PERICENTER": 320.4428, "MEAN_ANOMALY": 193.9524, "EPHEMERIS_TYPE": 0, "CLASSIFICATION_TYPE": "U", "NORAD_CAT_ID": 29772, "ELEMENT_SET_NO": 999, "REV_AT_EPOCH": 96105, "BSTAR": 0.0011778651, "MEAN_MOTION_DOT": 1.956e-05, "MEAN_MOTION_DDOT": 0}, "tle": {"line1": "1 29772U 99025BN  25336.05604693  .00001956  00000+0  11779-2 0  9991", "line2": "2 29772  98.3877 186.0811 0138612 320.4428 193.9524 14.03146146961054"}}, "geometry": {"type": "Point", "coordinates": [-170.15204531783124, 13.694084685434973]}}, {"type": "Feature", "properties": {"norad_id": 29773, "name": "FENGYUN 1C DEB", "group": "fengyun-1c-debris", "lat": 37.07728854346641, "lon": 128.98441473204724, "alt_km": 799.48682236267, "timestamp": "2025-12-08T08:59:01.036852+00:00", "meta": {"OBJECT_NAME": "FENGYUN 1C DEB", "OBJECT_ID": "1999-025BP", "EPOCH": "2025-12-07T23:17:51.389088", "MEAN_MOTION": 14.27555742, "ECCENTRICITY": 0.00463818, "INCLINATION": 98.9874, "RA_OF_ASC_NODE": 135.4382, "ARG_OF_PERICENTER": 304.6712, "MEAN_ANOMALY": 179.5722, "EPHEMERIS_TYPE": 0, "CLASSIFICATION_TYPE": "U", "NORAD_CAT_ID": 29773, "ELEMENT_SET_NO": 999, "REV_AT_EPOCH": 98129, "BSTAR": 0.00057249544, "MEAN_MOTION_DOT": 1.377e-05, "MEAN_MOTION_DDOT": 0}, "tle": {"line1": "1 29773U 99025BP  25341.97073367  .00001377  00000+0  57250-3 0  9999", "line2": "2 29773  98.9874 135.4382 0046381 304.6712 179.5722 14.27555742981290"}}, "geometry": {"type": "Point", "coordinates": [128.98441473204724, 37.07728854346641]}}, {"type": "Feature", "properties": {"norad_id": 29774, "name": "FENGYUN 1C DEB", "group": "fengyun-1c-debris", "lat": 75.91443419642846, "lon": -116.99718587618848, "alt_km": 788.5033346285436, "timestamp": "2025-12-08T08:59:01.036862+00:00", "meta": {"OBJECT_NAME": "FENGYUN 1C DEB", "OBJECT_ID": "1999-025BQ", "EPOCH": "2025-12-07T19:22:00.301152", "MEAN_MOTION": 14.22726486, "ECCENTRICITY": 0.00509213, "INCLINATION": 99.0755, "RA_OF_ASC_NODE": 281.9885, "ARG_OF_PERICENTER": 137.2116, "MEAN_ANOMALY": 278.1407, "EPHEMERIS_TYPE": 0, "CLASSIFICATION_TYPE": "U", "NORAD_CAT_ID": 29774, "ELEMENT_SET_NO": 999, "REV_AT_EPOCH": 98005, "BSTAR": 0.00030318522, "MEAN_MOTION_DOT": 6.42e-06, "MEAN_MOTION_DDOT": 0}, "tle": {"line1": "1 29774U 99025BQ  25341.80694793  .00000642  00000+0  30319-3 0  9995", "line2": "2 29774  99.0755 281.9885 0050921 137.2116 278.1407 14.22726486980058"}}, "geometry": {"type": "Point", "coordinates": [-116.99718587618848, 75.91443419642846]}}, {"type": "Feature", "properties": {"norad_id": 29776, "name": "FENGYUN 1C DEB", "group": "fengyun-1c-debris", "lat": -21.07118638281622, "lon": -174.1574133478704, "alt_km": 870.0134611423227, "timestamp": "2025-12-08T08:59:01.036872+00:00", "meta": {"OBJECT_NAME": "FENGYUN 1C DEB", "OBJECT_ID": "1999-025BS", "EPOCH": "2025-12-07T23:47:47.297760", "MEAN_MOTION": 14.07771414, "ECCENTRICITY": 0.002281, "INCLINATION": 98.7715, "RA_OF_ASC_NODE": 8.8812, "ARG_OF_PERICENTER": 284.823, "MEAN_ANOMALY": 137.7236, "EPHEMERIS_TYPE": 0, "CLASSIFICATION_TYPE": "U", "NORAD_CAT_ID": 29776, "ELEMENT_SET_NO": 999, "REV_AT_EPOCH": 97013, "BSTAR": 0.00017371348, "MEAN_MOTION_DOT": 2.52e-06, "MEAN_MOTION_DDOT": 0}, "tle": {"line1": "1 29776U 99025BS  25341.99151965  .00000252  00000+0  17371-3 0  9996", "line2": "2 29776  98.7715   8.8812 0022810 284.8230 137.7236 14.07771414970132"}}, "geometry": {"type": "Point", "coordinates": [-174.1574133478704, -21.07118638281622]}}, {"type": "Feature", "properties": {"norad_id": 29777, "name": "FENGYUN 1C DEB", "group": "fengyun-1c-debris", "lat": 47.131017288597924, "lon": -130.61979894158418, "alt_km": 915.9462042586965, "timestamp": "2025-12-08T08:59:01.036883+00:00", "meta": {"OBJECT_NAME": "FENGYUN 1C DEB", "OBJECT_ID": "1999-025BT", "EPOCH": "2025-12-07T22:51:15.917184", "MEAN_MOTION": 13.92101614, "ECCENTRICITY": 0.00925308, "INCLINATION": 99.2841, "RA_OF_ASC_NODE": 38.8082, "ARG_OF_PERICENTER": 222.7201, "MEAN_ANOMALY": 316.3196, "EPHEMERIS_TYPE": 0, "CLASSIFICATION_TYPE": "U", "NORAD_CAT_ID": 29777, "ELEMENT_SET_NO": 999, "REV_AT_EPOCH": 95974, "BSTAR": 0.00015272543, "MEAN_MOTION_DOT": 1.57e-06, "MEAN_MOTION_DDOT": 0}, "tle": {"line1": "1 29777U 99025BT  25341.95226756  .00000157  00000+0  15273-3 0  9997", "line2": "2 29777  99.2841  38.8082 0092530 222.7201 316.3196 13.92101614959742"}}, "geometry": {"type": "Point", "coordinates": [-130.61979894158418, 47.131017288597924]}}, {"type": "Feature", "properties": {"norad_id": 29779, "name": "FENGYUN 1C DEB", "group": "fengyun-1c-debris", "lat": 60.920755937594706, "lon": -170.3191801641804, "alt_km": 817.7750433214487, "timestamp": "2025-12-08T08:59:01.036893+00:00", "meta": {"OBJECT_NAME": "FENGYUN 1C DEB", "OBJECT_ID": "1999-025BV", "EPOCH": "2025-12-07T23:55:50.545920", "MEAN_MOTION": 14.13436071, "ECCENTRICITY": 0.00632529, "INCLINATION": 98.6773, "RA_OF_ASC_NODE": 353.3765, "ARG_OF_PERICENTER": 177.6668, "MEAN_ANOMALY": 182.4812, "EPHEMERIS_TYPE": 0, "CLASSIFICATION_TYPE": "U", "NORAD_CAT_ID": 29779, "ELEMENT_SET_NO": 999, "REV_AT_EPOCH": 97345, "BSTAR": 0.0003421735, "MEAN_MOTION_DOT": 6.13e-06, "MEAN_MOTION_DDOT": 0}, "tle": {"line1": "1 29779U 99025BV  25341.99711280  .00000613  00000+0  34217-3 0  9990", "line2": "2 29779  98.6773 353.3765 0063252 177.6668 182.4812 14.13436071973451"}}, "geometry": {"type": "Point", "coordinates": [-170.3191801641804, 60.920755937594706]}}, {"type": "Feature", "properties": {"norad_id": 29780, "name": "FENGYUN 1C DEB", "group": "fengyun-1c-debris", "lat": 53.45610950371458, "lon": 95.82622244139068, "alt_km": 789.0513998379165, "timestamp": "2025-12-08T08:59:01.036904+00:00", "meta": {"OBJECT_NAME": "FENGYUN 1C DEB", "OBJECT_ID": "1999-025BW", "EPOCH": "2025-12-07T17:11:13.134336", "MEAN_MOTION": 14.20987839, "ECCENTRICITY": 0.0040126, "INCLINATION": 99.2777, "RA_OF_ASC_NODE": 262.3941, "ARG_OF_PERICENTER": 142.8188, "MEAN_ANOMALY": 217.5778, "EPHEMERIS_TYPE": 0, "CLASSIFICATION_TYPE": "U", "NORAD_CAT_ID": 29780, "ELEMENT_SET_NO": 999, "REV_AT_EPOCH": 97007, "BSTAR": 0.0028675925, "MEAN_MOTION_DOT": 6.222e-05, "MEAN_MOTION_DDOT": 0}, "tle": {"line1": "1 29780U 99025BW  25341.71612424  .00006222  00000+0  28676-2 0  9995", "line2": "2 29780  99.2777 262.3941 0040126 142.8188 217.5778 14.20987839970072"}}, "geometry": {"type": "Point", "coordinates": [95.82622244139068, 53.45610950371458]}}, {"type": "Feature", "properties": {"norad_id": 29781, "name": "FENGYUN 1C DEB", "group": "fengyun-1c-debris", "lat": -34.648530944367124, "lon": -17.193181628476076, "alt_km": 921.4104801888743, "timestamp": "2025-12-08T08:59:01.036915+00:00", "meta": {"OBJECT_NAME": "FENGYUN 1C DEB", "OBJECT_ID": "1999-025BX", "EPOCH": "2025-12-07T23:09:54.126720", "MEAN_MOTION": 14.0521186, "ECCENTRICITY": 0.00716334, "INCLINATION": 98.8093, "RA_OF_ASC_NODE": 336.2572, "ARG_OF_PERICENTER": 186.4838, "MEAN_ANOMALY": 229.5269, "EPHEMERIS_TYPE": 0, "CLASSIFICATION_TYPE": "U", "NORAD_CAT_ID": 29781, "ELEMENT_SET_NO": 999, "REV_AT_EPOCH": 96576, "BSTAR": 0.00078633961, "MEAN_MOTION_DOT": 1.258e-05, "MEAN_MOTION_DDOT": 0}, "tle": {"line1": "1 29781U 99025BX  25341.96520980  .00001258  00000+0  78634-3 0  9992", "line2": "2 29781  98.8093 336.2572 0071633 186.4838 229.5269 14.05211860965768"}}, "geometry": {"type": "Point", "coordinates": [-17.193181628476076, -34.648530944367124]}}]}